[{"OBJECT_NAME":"STARLINK-5620","OBJECT_ID":"2023-014Z","EPOCH":"2026-03-09T22:50:04.007328","MEAN_MOTION":14.9832514,"ECCENTRICITY":0.00042346,"INCLINATION":69.9981,"RA_OF_ASC_NODE":83.7072,"ARG_OF_PERICENTER":270.6473,"MEAN_ANOMALY":89.4201,"EPHEMERIS_TYPE":0,"CLASSIFICATION_TYPE":"U","NORAD_CAT_ID":55414,"ELEMENT_SET_NO":999,"REV_AT_EPOCH":17160,"BSTAR":2.1797609e-5,"MEAN_MOTION_DOT":1.67e-6,"MEAN_MOTION_DDOT":0},{"OBJECT_NAME":"CZ-6A DEB","OBJECT_ID":"2024-140PM","EPOCH":"2026-03-09T13:51:31.286016","MEAN_MOTION":14.89023636,"ECCENTRICITY":0.005735,"INCLINATION":89.0306,"RA_OF_ASC_NODE":283.4654,"ARG_OF_PERICENTER":193.2665,"MEAN_ANOMALY":166.7059,"EPHEMERIS_TYPE":0,"CLASSIFICATION_TYPE":"U","NORAD_CAT_ID":61119,"ELEMENT_SET_NO":999,"REV_AT_EPOCH":8334,"BSTAR":0.0034209,"MEAN_MOTION_DOT":0.00033325,"MEAN_MOTION_DDOT":0}]
